{"type": "FeatureCollection", "features": [{"type": "Feature", "properties": {"norad_id": 2807, "name": "OPS 7218 (TRANSIT 16)", "group": "nnss", "lat": -21.978143219213806, "lon": -6.403037044616691, "alt_km": 1081.2949786989757, "timestamp": "2025-12-21T09:37:22.923083+00:00", "meta": {"OBJECT_NAME": "OPS 7218 (TRANSIT 16)", "OBJECT_ID": "1967-048A", "EPOCH": "2025-12-20T23:20:50.288064", "MEAN_MOTION": 13.50723938, "ECCENTRICITY": 0.0022154, "INCLINATION": 89.6731, "RA_OF_ASC_NODE": 353.7431, "ARG_OF_PERICENTER": 92.1461, "MEAN_ANOMALY": 325.5076, "EPHEMERIS_TYPE": 0, "CLASSIFICATION_TYPE": "U", "NORAD_CAT_ID": 2807, "ELEMENT_SET_NO": 999, "REV_AT_EPOCH": 88387, "BSTAR": 0.00014678, "MEAN_MOTION_DOT": 1.05e-06, "MEAN_MOTION_DDOT": 0}, "tle": {"line1": "1 02807U 67048A   25354.97280426  .00000105  00000+0  14678-3 0  9993", "line2": "2 02807  89.6731 353.7431 0022154  92.1461 325.5076 13.50723938883879"}}, "geometry": {"type": "Point", "coordinates": [-6.403037044616691, -21.978143219213806]}}, {"type": "Feature", "properties": {"norad_id": 2965, "name": "OPS 4947 (TRANSIT 17)", "group": "nnss", "lat": 52.53769076619279, "lon": -157.20624428682356, "alt_km": 1049.3387804412587, "timestamp": "2025-12-21T09:37:22.923106+00:00", "meta": {"OBJECT_NAME": "OPS 4947 (TRANSIT 17)", "OBJECT_ID": "1967-092A", "EPOCH": "2025-12-21T04:00:48.652128", "MEAN_MOTION": 13.53455665, "ECCENTRICITY": 0.0046779, "INCLINATION": 89.2487, "RA_OF_ASC_NODE": 23.7927, "ARG_OF_PERICENTER": 209.4251, "MEAN_ANOMALY": 220.3395, "EPHEMERIS_TYPE": 0, "CLASSIFICATION_TYPE": "U", "NORAD_CAT_ID": 2965, "ELEMENT_SET_NO": 999, "REV_AT_EPOCH": 87211, "BSTAR": 0.0001822, "MEAN_MOTION_DOT": 1.34e-06, "MEAN_MOTION_DDOT": 0}, "tle": {"line1": "1 02965U 67092A   25355.16722977  .00000134  00000+0  18220-3 0  9990", "line2": "2 02965  89.2487  23.7927 0046779 209.4251 220.3395 13.53455665872114"}}, "geometry": {"type": "Point", "coordinates": [-157.20624428682356, 52.53769076619279]}}, {"type": "Feature", "properties": {"norad_id": 3133, "name": "OPS 7034 (TRANSIT 18)", "group": "nnss", "lat": -39.22103110937794, "lon": 93.64027831535873, "alt_km": 1058.1793379090395, "timestamp": "2025-12-21T09:37:22.923120+00:00", "meta": {"OBJECT_NAME": "OPS 7034 (TRANSIT 18)", "OBJECT_ID": "1968-012A", "EPOCH": "2025-12-21T01:29:49.321824", "MEAN_MOTION": 13.51567536, "ECCENTRICITY": 0.0074649, "INCLINATION": 90.0284, "RA_OF_ASC_NODE": 273.6625, "ARG_OF_PERICENTER": 145.1624, "MEAN_ANOMALY": 226.6945, "EPHEMERIS_TYPE": 0, "CLASSIFICATION_TYPE": "U", "NORAD_CAT_ID": 3133, "ELEMENT_SET_NO": 999, "REV_AT_EPOCH": 57031, "BSTAR": 0.0001688, "MEAN_MOTION_DOT": 1.22e-06, "MEAN_MOTION_DDOT": 0}, "tle": {"line1": "1 03133U 68012A   25355.06237641  .00000122  00000+0  16880-3 0  9996", "line2": "2 03133  90.0284 273.6625 0074649 145.1624 226.6945 13.51567536570311"}}, "geometry": {"type": "Point", "coordinates": [93.64027831535873, -39.22103110937794]}}, {"type": "Feature", "properties": {"norad_id": 4507, "name": "NNSS 19 (TRANSIT 19)", "group": "nnss", "lat": -0.11376013861326935, "lon": 54.539821446980795, "alt_km": 1063.9016722757615, "timestamp": "2025-12-21T09:37:22.923132+00:00", "meta": {"OBJECT_NAME": "NNSS 19 (TRANSIT 19)", "OBJECT_ID": "1970-067A", "EPOCH": "2025-12-21T03:23:04.185888", "MEAN_MOTION": 13.51316689, "ECCENTRICITY": 0.0170232, "INCLINATION": 90.005, "RA_OF_ASC_NODE": 234.5397, "ARG_OF_PERICENTER": 268.7928, "MEAN_ANOMALY": 89.3717, "EPHEMERIS_TYPE": 0, "CLASSIFICATION_TYPE": "U", "NORAD_CAT_ID": 4507, "ELEMENT_SET_NO": 999, "REV_AT_EPOCH": 72335, "BSTAR": 0.00013582, "MEAN_MOTION_DOT": 1.04e-06, "MEAN_MOTION_DDOT": 0}, "tle": {"line1": "1 04507U 70067A   25355.14102067  .00000104  00000+0  13582-3 0  9993", "line2": "2 04507  90.0050 234.5397 0170232 268.7928  89.3717 13.51316689723350"}}, "geometry": {"type": "Point", "coordinates": [54.539821446980795, -0.11376013861326935]}}, {"type": "Feature", "properties": {"norad_id": 6909, "name": "NNSS 20 (TRANSIT 20)", "group": "nnss", "lat": 17.11140955550362, "lon": 74.88012358120862, "alt_km": 1033.017812305994, "timestamp": "2025-12-21T09:37:22.923144+00:00", "meta": {"OBJECT_NAME": "NNSS 20 (TRANSIT 20)", "OBJECT_ID": "1973-081A", "EPOCH": "2025-12-21T03:35:37.797792", "MEAN_MOTION": 13.7143837, "ECCENTRICITY": 0.015638, "INCLINATION": 89.8562, "RA_OF_ASC_NODE": 254.9282, "ARG_OF_PERICENTER": 53.4084, "MEAN_ANOMALY": 308.1351, "EPHEMERIS_TYPE": 0, "CLASSIFICATION_TYPE": "U", "NORAD_CAT_ID": 6909, "ELEMENT_SET_NO": 999, "REV_AT_EPOCH": 80476, "BSTAR": 0.00023688, "MEAN_MOTION_DOT": 2.44e-06, "MEAN_MOTION_DDOT": 0}, "tle": {"line1": "1 06909U 73081A   25355.14974303  .00000244  00000+0  23688-3 0  9993", "line2": "2 06909  89.8562 254.9282 0156380  53.4084 308.1351 13.71438370804766"}}, "geometry": {"type": "Point", "coordinates": [74.88012358120862, 17.11140955550362]}}, {"type": "Feature", "properties": {"norad_id": 10457, "name": "TRANSAT", "group": "nnss", "lat": 67.08934123217718, "lon": -102.54320722428136, "alt_km": 1057.614104230931, "timestamp": "2025-12-21T09:37:22.923155+00:00", "meta": {"OBJECT_NAME": "TRANSAT", "OBJECT_ID": "1977-106A", "EPOCH": "2025-12-21T04:01:21.737280", "MEAN_MOTION": 13.48944804, "ECCENTRICITY": 0.0026188, "INCLINATION": 89.6479, "RA_OF_ASC_NODE": 78.2987, "ARG_OF_PERICENTER": 165.4094, "MEAN_ANOMALY": 255.1866, "EPHEMERIS_TYPE": 0, "CLASSIFICATION_TYPE": "U", "NORAD_CAT_ID": 10457, "ELEMENT_SET_NO": 999, "REV_AT_EPOCH": 36857, "BSTAR": 0.00011868, "MEAN_MOTION_DOT": 8.5e-07, "MEAN_MOTION_DDOT": 0}, "tle": {"line1": "1 10457U 77106A   25355.16761270  .00000085  00000+0  11868-3 0  9997", "line2": "2 10457  89.6479  78.2987 0026188 165.4094 255.1866 13.48944804368574"}}, "geometry": {"type": "Point", "coordinates": [-102.54320722428136, 67.08934123217718]}}, {"type": "Feature", "properties": {"norad_id": 12458, "name": "NOVA 1", "group": "nnss", "lat": -64.67949284437584, "lon": 90.95124562339771, "alt_km": 1189.5807813036536, "timestamp": "2025-12-21T09:37:22.923166+00:00", "meta": {"OBJECT_NAME": "NOVA 1", "OBJECT_ID": "1981-044A", "EPOCH": "2025-12-21T01:45:26.265024", "MEAN_MOTION": 13.23279246, "ECCENTRICITY": 0.0015849, "INCLINATION": 89.8527, "RA_OF_ASC_NODE": 91.2674, "ARG_OF_PERICENTER": 83.5202, "MEAN_ANOMALY": 91.57, "EPHEMERIS_TYPE": 0, "CLASSIFICATION_TYPE": "U", "NORAD_CAT_ID": 12458, "ELEMENT_SET_NO": 999, "REV_AT_EPOCH": 15296, "BSTAR": 9.315e-05, "MEAN_MOTION_DOT": 4.9e-07, "MEAN_MOTION_DDOT": 0}, "tle": {"line1": "1 12458U 81044A   25355.07322066  .00000049  00000+0  93150-4 0  9997", "line2": "2 12458  89.8527  91.2674 0015849  83.5202  91.5700 13.23279246152961"}}, "geometry": {"type": "Point", "coordinates": [90.95124562339771, -64.67949284437584]}}, {"type": "Feature", "properties": {"norad_id": 15362, "name": "NOVA 3", "group": "nnss", "lat": 19.215103015575203, "lon": -99.32071894078733, "alt_km": 1192.0870802121426, "timestamp": "2025-12-21T09:37:22.923177+00:00", "meta": {"OBJECT_NAME": "NOVA 3", "OBJECT_ID": "1984-110A", "EPOCH": "2025-12-21T03:41:40.892928", "MEAN_MOTION": 13.23045543, "ECCENTRICITY": 0.0029984, "INCLINATION": 90.1221, "RA_OF_ASC_NODE": 80.6338, "ARG_OF_PERICENTER": 307.76, "MEAN_ANOMALY": 117.273, "EPHEMERIS_TYPE": 0, "CLASSIFICATION_TYPE": "U", "NORAD_CAT_ID": 15362, "ELEMENT_SET_NO": 999, "REV_AT_EPOCH": 98810, "BSTAR": 0.00014383, "MEAN_MOTION_DOT": 6.9e-07, "MEAN_MOTION_DDOT": 0}, "tle": {"line1": "1 15362U 84110A   25355.15394552  .00000069  00000+0  14383-3 0  9991", "line2": "2 15362  90.1221  80.6338 0029984 307.7600 117.2730 13.23045543988104"}}, "geometry": {"type": "Point", "coordinates": [-99.32071894078733, 19.215103015575203]}}, {"type": "Feature", "properties": {"norad_id": 15935, "name": "OSCAR 30", "group": "nnss", "lat": -73.96622706950922, "lon": 100.5649801295664, "alt_km": 1217.8119146025747, "timestamp": "2025-12-21T09:37:22.923188+00:00", "meta": {"OBJECT_NAME": "OSCAR 30", "OBJECT_ID": "1985-066A", "EPOCH": "2025-12-20T20:09:09.955584", "MEAN_MOTION": 13.36079432, "ECCENTRICITY": 0.01691709, "INCLINATION": 90.1655, "RA_OF_ASC_NODE": 99.9796, "ARG_OF_PERICENTER": 61.2952, "MEAN_ANOMALY": 48.1693, "EPHEMERIS_TYPE": 0, "CLASSIFICATION_TYPE": "U", "NORAD_CAT_ID": 15935, "ELEMENT_SET_NO": 999, "REV_AT_EPOCH": 96561, "BSTAR": 0.00010448209, "MEAN_MOTION_DOT": 6.8e-07, "MEAN_MOTION_DDOT": 0}, "tle": {"line1": "1 15935U 85066A   25354.83969856  .00000068  00000+0  10448-3 0  9994", "line2": "2 15935  90.1655  99.9796 0169170  61.2952  48.1693 13.36079432965615"}}, "geometry": {"type": "Point", "coordinates": [100.5649801295664, -73.96622706950922]}}, {"type": "Feature", "properties": {"norad_id": 15936, "name": "OSCAR 24", "group": "nnss", "lat": -3.552001234256818, "lon": 92.4696888688112, "alt_km": 1081.3694503727465, "timestamp": "2025-12-21T09:37:22.923199+00:00", "meta": {"OBJECT_NAME": "OSCAR 24", "OBJECT_ID": "1985-066B", "EPOCH": "2025-12-21T01:30:06.568128", "MEAN_MOTION": 13.3593685, "ECCENTRICITY": 0.0170269, "INCLINATION": 90.1791, "RA_OF_ASC_NODE": 92.4526, "ARG_OF_PERICENTER": 67.1021, "MEAN_ANOMALY": 104.8229, "EPHEMERIS_TYPE": 0, "CLASSIFICATION_TYPE": "U", "NORAD_CAT_ID": 15936, "ELEMENT_SET_NO": 999, "REV_AT_EPOCH": 96754, "BSTAR": 0.00011201, "MEAN_MOTION_DOT": 7.2e-07, "MEAN_MOTION_DDOT": 0}, "tle": {"line1": "1 15936U 85066B   25355.06257602  .00000072  00000+0  11201-3 0  9993", "line2": "2 15936  90.1791  92.4526 0170269  67.1021 104.8229 13.35936850967543"}}, "geometry": {"type": "Point", "coordinates": [92.4696888688112, -3.552001234256818]}}]}